0 SL-8 R/B
1 06708U 73042B   13282.15908244  .00000102  00000-0  92171-4 0  1108
2 06708 082.9474 334.2310 0013104 023.4142 351.4491 13.73939134 19862
0 SL-8 R/B
1 06708U 73042B   13283.33137683  .00000110  00000-0  10130-3 0  1114
2 06708 082.9472 333.3646 0013023 020.1575 029.8216 13.73939161 20027
0 SL-8 R/B
1 06708U 73042B   13285.75248559  .00000121  00000-0  11241-3 0  1135
2 06708 082.9466 331.5755 0012858 013.4195 125.0596 13.73939378 20355
0 SL-8 R/B
1 06708U 73042B   13286.77173603  .00000132  00000-0  12514-3 0  1142
2 06708 082.9463 330.8222 0012788 010.5887 126.4503 13.73939606 20493
0 SL-8 R/B
1 06708U 73042B   13288.13021675  .00000141  00000-0  13434-3 0  1158
2 06708 082.9460 329.8182 0012705 006.6717 005.8773 13.73940222 20686
0 SL-8 R/B
1 06708U 73042B   13289.15184495  .00000128  00000-0  12071-3 0  1163
2 06708 082.9458 329.0631 0012650 003.7378 019.1274 13.73940637 20824
0 SL-8 R/B
1 06708U 73042B   13290.17848733  .00000115  00000-0  10659-3 0  1176
2 06708 082.9457 328.3042 0012572 000.9191 057.0507 13.73940856 20964
0 SL-8 R/B
1 06708U 73042B   13291.49926677  .00000102  00000-0  92880-4 0  1180
2 06708 082.9456 327.3277 0012487 357.0929 110.0203 13.73941088 21144
0 SL-8 R/B
1 06708U 73042B   13292.53095870  .00000110  00000-0  10110-3 0  1193
2 06708 082.9456 326.5650 0012431 354.0948 173.0876 13.73941348 21286
0 SL-8 R/B
1 06708U 73042B   13293.69051887  .00000114  00000-0  10602-3 0  1203
2 06708 082.9455 325.7077 0012347 350.7581 148.5985 13.73941559 21441
0 SL-8 R/B
1 06708U 73042B   13294.70995472  .00000133  00000-0  12624-3 0  1211
2 06708 082.9455 324.9540 0012296 347.7294 151.1119 13.73941838 21581
0 SL-8 R/B
1 06708U 73042B   13295.72907733  .00000145  00000-0  13878-3 0  1223
2 06708 082.9454 324.2007 0012244 344.6856 152.0927 13.73941983 21728
